[{"OBJECT_NAME":"STARLINK-36216","OBJECT_ID":"2025-304AB","EPOCH":"2026-03-09T16:30:17.309376","MEAN_MOTION":14.98333147,"ECCENTRICITY":0.0004257,"INCLINATION":70.0016,"RA_OF_ASC_NODE":174.4865,"ARG_OF_PERICENTER":263.2577,"MEAN_ANOMALY":96.8098,"EPHEMERIS_TYPE":0,"CLASSIFICATION_TYPE":"U","NORAD_CAT_ID":67217,"ELEMENT_SET_NO":999,"REV_AT_EPOCH":1387,"BSTAR":0.00040737773,"MEAN_MOTION_DOT":4.772e-5,"MEAN_MOTION_DDOT":0},{"OBJECT_NAME":"ATLAS 28E DEB","OBJECT_ID":"1990-031E","EPOCH":"2026-03-09T22:13:15.208608","MEAN_MOTION":14.88062431,"ECCENTRICITY":0.00498313,"INCLINATION":89.8423,"RA_OF_ASC_NODE":265.8289,"ARG_OF_PERICENTER":258.935,"MEAN_ANOMALY":100.6272,"EPHEMERIS_TYPE":0,"CLASSIFICATION_TYPE":"U","NORAD_CAT_ID":20564,"ELEMENT_SET_NO":999,"REV_AT_EPOCH":35731,"BSTAR":0.00023704845,"MEAN_MOTION_DOT":2.245e-5,"MEAN_MOTION_DDOT":0}]
